{
	"type" : "FeatureCollection",
	"name" : "ocd.AccessibleParking",
	"features" : [
		{
			"type" : "Feature",
			"geometry" : {
				"type" : "Point",
				"coordinates" : [ 144.9739272917, -37.8348204539 ]
			},
			"properties" : {
				"Table_Row_ID" : 1
			}
		},
		{
			"type" : "Feature",
			"geometry" : {
				"type" : "Point",
				"coordinates" : [ 144.94280434, -37.8389892233 ]
			},
			"properties" : {
				"Table_Row_ID" : 2
			}
		},
		{
			"type" : "Feature",
			"geometry" : {
				"type" : "Point",
				"coordinates" : [ 144.9433126955, -37.8348441207 ]
			},
			"properties" : {
				"Table_Row_ID" : 3
			}
		},
		{
			"type" : "Feature",
			"geometry" : {
				"type" : "Point",
				"coordinates" : [ 144.9811973078, -37.8667542002 ]
			},
			"properties" : {
				"Table_Row_ID" : 4
			}
		},
		{
			"type" : "Feature",
			"geometry" : {
				"type" : "Point",
				"coordinates" : [ 144.9414996181, -37.8376947385 ]
			},
			"properties" : {
				"Table_Row_ID" : 5
			}
		},
		{
			"type" : "Feature",
			"geometry" : {
				"type" : "Point",
				"coordinates" : [ 144.9911738276, -37.8722800987 ]
			},
			"properties" : {
				"Table_Row_ID" : 6
			}
		},
		{
			"type" : "Feature",
			"geometry" : {
				"type" : "Point",
				"coordinates" : [ 144.9889582701, -37.8681218522 ]
			},
			"properties" : {
				"Table_Row_ID" : 7
			}
		},
		{
			"type" : "Feature",
			"geometry" : {
				"type" : "Point",
				"coordinates" : [ 144.9414702446, -37.8379566422 ]
			},
			"properties" : {
				"Table_Row_ID" : 8
			}
		},
		{
			"type" : "Feature",
			"geometry" : {
				"type" : "Point",
				"coordinates" : [ 144.9615861965, -37.8366251591 ]
			},
			"properties" : {
				"Table_Row_ID" : 9
			}
		},
		{
			"type" : "Feature",
			"geometry" : {
				"type" : "Point",
				"coordinates" : [ 144.9543663253, -37.8488683784 ]
			},
			"properties" : {
				"Table_Row_ID" : 10
			}
		},
		{
			"type" : "Feature",
			"geometry" : {
				"type" : "Point",
				"coordinates" : [ 144.9761553951, -37.8615421461 ]
			},
			"properties" : {
				"Table_Row_ID" : 11
			}
		},
		{
			"type" : "Feature",
			"geometry" : {
				"type" : "Point",
				"coordinates" : [ 144.9762740363, -37.861172798 ]
			},
			"properties" : {
				"Table_Row_ID" : 12
			}
		},
		{
			"type" : "Feature",
			"geometry" : {
				"type" : "Point",
				"coordinates" : [ 144.9822538053, -37.8698703632 ]
			},
			"properties" : {
				"Table_Row_ID" : 13
			}
		},
		{
			"type" : "Feature",
			"geometry" : {
				"type" : "Point",
				"coordinates" : [ 144.9720014209, -37.8641545599 ]
			},
			"properties" : {
				"Table_Row_ID" : 14
			}
		},
		{
			"type" : "Feature",
			"geometry" : {
				"type" : "Point",
				"coordinates" : [ 144.9761370889, -37.860653964 ]
			},
			"properties" : {
				"Table_Row_ID" : 15
			}
		},
		{
			"type" : "Feature",
			"geometry" : {
				"type" : "Point",
				"coordinates" : [ 144.9565294586, -37.8413326832 ]
			},
			"properties" : {
				"Table_Row_ID" : 16
			}
		},
		{
			"type" : "Feature",
			"geometry" : {
				"type" : "Point",
				"coordinates" : [ 144.9591235414, -37.8484232735 ]
			},
			"properties" : {
				"Table_Row_ID" : 17
			}
		},
		{
			"type" : "Feature",
			"geometry" : {
				"type" : "Point",
				"coordinates" : [ 144.9746401888, -37.8652238335 ]
			},
			"properties" : {
				"Table_Row_ID" : 18
			}
		},
		{
			"type" : "Feature",
			"geometry" : {
				"type" : "Point",
				"coordinates" : [ 144.9957514148, -37.8619235989 ]
			},
			"properties" : {
				"Table_Row_ID" : 19
			}
		},
		{
			"type" : "Feature",
			"geometry" : {
				"type" : "Point",
				"coordinates" : [ 144.9752178977, -37.8394578387 ]
			},
			"properties" : {
				"Table_Row_ID" : 20
			}
		},
		{
			"type" : "Feature",
			"geometry" : {
				"type" : "Point",
				"coordinates" : [ 144.9614145243, -37.8341132286 ]
			},
			"properties" : {
				"Table_Row_ID" : 21
			}
		},
		{
			"type" : "Feature",
			"geometry" : {
				"type" : "Point",
				"coordinates" : [ 144.986681173, -37.8644710432 ]
			},
			"properties" : {
				"Table_Row_ID" : 22
			}
		},
		{
			"type" : "Feature",
			"geometry" : {
				"type" : "Point",
				"coordinates" : [ 144.9416461273, -37.8385284599 ]
			},
			"properties" : {
				"Table_Row_ID" : 23
			}
		},
		{
			"type" : "Feature",
			"geometry" : {
				"type" : "Point",
				"coordinates" : [ 144.9684198487, -37.8581406383 ]
			},
			"properties" : {
				"Table_Row_ID" : 24
			}
		},
		{
			"type" : "Feature",
			"geometry" : {
				"type" : "Point",
				"coordinates" : [ 144.9783504642, -37.8481109539 ]
			},
			"properties" : {
				"Table_Row_ID" : 25
			}
		},
		{
			"type" : "Feature",
			"geometry" : {
				"type" : "Point",
				"coordinates" : [ 144.9552483354, -37.8401996962 ]
			},
			"properties" : {
				"Table_Row_ID" : 26
			}
		},
		{
			"type" : "Feature",
			"geometry" : {
				"type" : "Point",
				"coordinates" : [ 144.9766476312, -37.8718846629 ]
			},
			"properties" : {
				"Table_Row_ID" : 27
			}
		},
		{
			"type" : "Feature",
			"geometry" : {
				"type" : "Point",
				"coordinates" : [ 144.9592951925, -37.8395661801 ]
			},
			"properties" : {
				"Table_Row_ID" : 28
			}
		},
		{
			"type" : "Feature",
			"geometry" : {
				"type" : "Point",
				"coordinates" : [ 144.9586644283, -37.8457601687 ]
			},
			"properties" : {
				"Table_Row_ID" : 29
			}
		},
		{
			"type" : "Feature",
			"geometry" : {
				"type" : "Point",
				"coordinates" : [ 144.9763396895, -37.8674510481 ]
			},
			"properties" : {
				"Table_Row_ID" : 30
			}
		},
		{
			"type" : "Feature",
			"geometry" : {
				"type" : "Point",
				"coordinates" : [ 144.9922321567, -37.8584407391 ]
			},
			"properties" : {
				"Table_Row_ID" : 31
			}
		},
		{
			"type" : "Feature",
			"geometry" : {
				"type" : "Point",
				"coordinates" : [ 144.9468660243, -37.8383450829 ]
			},
			"properties" : {
				"Table_Row_ID" : 32
			}
		},
		{
			"type" : "Feature",
			"geometry" : {
				"type" : "Point",
				"coordinates" : [ 144.9894600687, -37.8703947387 ]
			},
			"properties" : {
				"Table_Row_ID" : 33
			}
		},
		{
			"type" : "Feature",
			"geometry" : {
				"type" : "Point",
				"coordinates" : [ 144.9537406681, -37.8290242081 ]
			},
			"properties" : {
				"Table_Row_ID" : 34
			}
		},
		{
			"type" : "Feature",
			"geometry" : {
				"type" : "Point",
				"coordinates" : [ 144.9562488976, -37.841199932 ]
			},
			"properties" : {
				"Table_Row_ID" : 35
			}
		},
		{
			"type" : "Feature",
			"geometry" : {
				"type" : "Point",
				"coordinates" : [ 144.9625479476, -37.8491319703 ]
			},
			"properties" : {
				"Table_Row_ID" : 36
			}
		},
		{
			"type" : "Feature",
			"geometry" : {
				"type" : "Point",
				"coordinates" : [ 144.95485208, -37.8411973275 ]
			},
			"properties" : {
				"Table_Row_ID" : 37
			}
		},
		{
			"type" : "Feature",
			"geometry" : {
				"type" : "Point",
				"coordinates" : [ 144.9575189231, -37.8366682161 ]
			},
			"properties" : {
				"Table_Row_ID" : 38
			}
		},
		{
			"type" : "Feature",
			"geometry" : {
				"type" : "Point",
				"coordinates" : [ 144.9543632702, -37.8320456059 ]
			},
			"properties" : {
				"Table_Row_ID" : 39
			}
		},
		{
			"type" : "Feature",
			"geometry" : {
				"type" : "Point",
				"coordinates" : [ 144.9593252391, -37.8342384127 ]
			},
			"properties" : {
				"Table_Row_ID" : 40
			}
		},
		{
			"type" : "Feature",
			"geometry" : {
				"type" : "Point",
				"coordinates" : [ 144.966823785, -37.8563035365 ]
			},
			"properties" : {
				"Table_Row_ID" : 41
			}
		},
		{
			"type" : "Feature",
			"geometry" : {
				"type" : "Point",
				"coordinates" : [ 144.9854504852, -37.8723528041 ]
			},
			"properties" : {
				"Table_Row_ID" : 42
			}
		},
		{
			"type" : "Feature",
			"geometry" : {
				"type" : "Point",
				"coordinates" : [ 144.9542492966, -37.8442018305 ]
			},
			"properties" : {
				"Table_Row_ID" : 43
			}
		},
		{
			"type" : "Feature",
			"geometry" : {
				"type" : "Point",
				"coordinates" : [ 144.9770034212, -37.8443058714 ]
			},
			"properties" : {
				"Table_Row_ID" : 44
			}
		},
		{
			"type" : "Feature",
			"geometry" : {
				"type" : "Point",
				"coordinates" : [ 144.9892760789, -37.8914727213 ]
			},
			"properties" : {
				"Table_Row_ID" : 45
			}
		},
		{
			"type" : "Feature",
			"geometry" : {
				"type" : "Point",
				"coordinates" : [ 145.0003866659, -37.8664190054 ]
			},
			"properties" : {
				"Table_Row_ID" : 46
			}
		},
		{
			"type" : "Feature",
			"geometry" : {
				"type" : "Point",
				"coordinates" : [ 144.9582491261, -37.8425612846 ]
			},
			"properties" : {
				"Table_Row_ID" : 47
			}
		},
		{
			"type" : "Feature",
			"geometry" : {
				"type" : "Point",
				"coordinates" : [ 144.9898847671, -37.8641316536 ]
			},
			"properties" : {
				"Table_Row_ID" : 48
			}
		},
		{
			"type" : "Feature",
			"geometry" : {
				"type" : "Point",
				"coordinates" : [ 144.9600633013, -37.8340636185 ]
			},
			"properties" : {
				"Table_Row_ID" : 49
			}
		},
		{
			"type" : "Feature",
			"geometry" : {
				"type" : "Point",
				"coordinates" : [ 144.9417748106, -37.8383991227 ]
			},
			"properties" : {
				"Table_Row_ID" : 50
			}
		},
		{
			"type" : "Feature",
			"geometry" : {
				"type" : "Point",
				"coordinates" : [ 144.9419824685, -37.83851819 ]
			},
			"properties" : {
				"Table_Row_ID" : 51
			}
		},
		{
			"type" : "Feature",
			"geometry" : {
				"type" : "Point",
				"coordinates" : [ 144.977662419, -37.8434051131 ]
			},
			"properties" : {
				"Table_Row_ID" : 52
			}
		},
		{
			"type" : "Feature",
			"geometry" : {
				"type" : "Point",
				"coordinates" : [ 144.9894219414, -37.8585482076 ]
			},
			"properties" : {
				"Table_Row_ID" : 53
			}
		},
		{
			"type" : "Feature",
			"geometry" : {
				"type" : "Point",
				"coordinates" : [ 144.9521253867, -37.8427063808 ]
			},
			"properties" : {
				"Table_Row_ID" : 54
			}
		},
		{
			"type" : "Feature",
			"geometry" : {
				"type" : "Point",
				"coordinates" : [ 144.9797162728, -37.8625309041 ]
			},
			"properties" : {
				"Table_Row_ID" : 55
			}
		},
		{
			"type" : "Feature",
			"geometry" : {
				"type" : "Point",
				"coordinates" : [ 144.955495212, -37.8469554559 ]
			},
			"properties" : {
				"Table_Row_ID" : 56
			}
		},
		{
			"type" : "Feature",
			"geometry" : {
				"type" : "Point",
				"coordinates" : [ 144.9371919963, -37.8423544644 ]
			},
			"properties" : {
				"Table_Row_ID" : 57
			}
		},
		{
			"type" : "Feature",
			"geometry" : {
				"type" : "Point",
				"coordinates" : [ 144.9412669493, -37.8377122033 ]
			},
			"properties" : {
				"Table_Row_ID" : 58
			}
		},
		{
			"type" : "Feature",
			"geometry" : {
				"type" : "Point",
				"coordinates" : [ 144.9438592272, -37.8349019373 ]
			},
			"properties" : {
				"Table_Row_ID" : 59
			}
		},
		{
			"type" : "Feature",
			"geometry" : {
				"type" : "Point",
				"coordinates" : [ 144.9561130075, -37.8422334689 ]
			},
			"properties" : {
				"Table_Row_ID" : 60
			}
		},
		{
			"type" : "Feature",
			"geometry" : {
				"type" : "Point",
				"coordinates" : [ 144.9559588392, -37.842140604 ]
			},
			"properties" : {
				"Table_Row_ID" : 61
			}
		},
		{
			"type" : "Feature",
			"geometry" : {
				"type" : "Point",
				"coordinates" : [ 144.9911646267, -37.8811061812 ]
			},
			"properties" : {
				"Table_Row_ID" : 62
			}
		},
		{
			"type" : "Feature",
			"geometry" : {
				"type" : "Point",
				"coordinates" : [ 144.9780888757, -37.883244146 ]
			},
			"properties" : {
				"Table_Row_ID" : 63
			}
		},
		{
			"type" : "Feature",
			"geometry" : {
				"type" : "Point",
				"coordinates" : [ 144.9783967049, -37.8837517836 ]
			},
			"properties" : {
				"Table_Row_ID" : 64
			}
		},
		{
			"type" : "Feature",
			"geometry" : {
				"type" : "Point",
				"coordinates" : [ 144.9727779796, -37.8640254377 ]
			},
			"properties" : {
				"Table_Row_ID" : 65
			}
		},
		{
			"type" : "Feature",
			"geometry" : {
				"type" : "Point",
				"coordinates" : [ 144.9418386859, -37.8363539079 ]
			},
			"properties" : {
				"Table_Row_ID" : 66
			}
		},
		{
			"type" : "Feature",
			"geometry" : {
				"type" : "Point",
				"coordinates" : [ 144.9433550044, -37.8370653805 ]
			},
			"properties" : {
				"Table_Row_ID" : 67
			}
		},
		{
			"type" : "Feature",
			"geometry" : {
				"type" : "Point",
				"coordinates" : [ 144.9986011055, -37.8660379901 ]
			},
			"properties" : {
				"Table_Row_ID" : 68
			}
		},
		{
			"type" : "Feature",
			"geometry" : {
				"type" : "Point",
				"coordinates" : [ 144.9361522975, -37.839781768 ]
			},
			"properties" : {
				"Table_Row_ID" : 69
			}
		},
		{
			"type" : "Feature",
			"geometry" : {
				"type" : "Point",
				"coordinates" : [ 144.9434295649, -37.8346509491 ]
			},
			"properties" : {
				"Table_Row_ID" : 70
			}
		},
		{
			"type" : "Feature",
			"geometry" : {
				"type" : "Point",
				"coordinates" : [ 144.99186728, -37.8651188786 ]
			},
			"properties" : {
				"Table_Row_ID" : 71
			}
		},
		{
			"type" : "Feature",
			"geometry" : {
				"type" : "Point",
				"coordinates" : [ 144.9546126427, -37.84558258 ]
			},
			"properties" : {
				"Table_Row_ID" : 72
			}
		},
		{
			"type" : "Feature",
			"geometry" : {
				"type" : "Point",
				"coordinates" : [ 144.959531502, -37.8482372196 ]
			},
			"properties" : {
				"Table_Row_ID" : 73
			}
		},
		{
			"type" : "Feature",
			"geometry" : {
				"type" : "Point",
				"coordinates" : [ 144.976427539, -37.8688912648 ]
			},
			"properties" : {
				"Table_Row_ID" : 74
			}
		},
		{
			"type" : "Feature",
			"geometry" : {
				"type" : "Point",
				"coordinates" : [ 144.9515485526, -37.8348150677 ]
			},
			"properties" : {
				"Table_Row_ID" : 75
			}
		},
		{
			"type" : "Feature",
			"geometry" : {
				"type" : "Point",
				"coordinates" : [ 144.9515107623, -37.8346647913 ]
			},
			"properties" : {
				"Table_Row_ID" : 76
			}
		},
		{
			"type" : "Feature",
			"geometry" : {
				"type" : "Point",
				"coordinates" : [ 144.9837705538, -37.8687529296 ]
			},
			"properties" : {
				"Table_Row_ID" : 77
			}
		},
		{
			"type" : "Feature",
			"geometry" : {
				"type" : "Point",
				"coordinates" : [ 144.9859769961, -37.8617396301 ]
			},
			"properties" : {
				"Table_Row_ID" : 78
			}
		},
		{
			"type" : "Feature",
			"geometry" : {
				"type" : "Point",
				"coordinates" : [ 144.9774960737, -37.868602507 ]
			},
			"properties" : {
				"Table_Row_ID" : 79
			}
		},
		{
			"type" : "Feature",
			"geometry" : {
				"type" : "Point",
				"coordinates" : [ 144.9476167431, -37.8373614477 ]
			},
			"properties" : {
				"Table_Row_ID" : 80
			}
		},
		{
			"type" : "Feature",
			"geometry" : {
				"type" : "Point",
				"coordinates" : [ 144.9444868822, -37.835853768 ]
			},
			"properties" : {
				"Table_Row_ID" : 81
			}
		},
		{
			"type" : "Feature",
			"geometry" : {
				"type" : "Point",
				"coordinates" : [ 144.97623979, -37.8641583534 ]
			},
			"properties" : {
				"Table_Row_ID" : 82
			}
		},
		{
			"type" : "Feature",
			"geometry" : {
				"type" : "Point",
				"coordinates" : [ 144.9333140779, -37.8378495466 ]
			},
			"properties" : {
				"Table_Row_ID" : 83
			}
		},
		{
			"type" : "Feature",
			"geometry" : {
				"type" : "Point",
				"coordinates" : [ 144.9236835612, -37.8390180432 ]
			},
			"properties" : {
				"Table_Row_ID" : 84
			}
		},
		{
			"type" : "Feature",
			"geometry" : {
				"type" : "Point",
				"coordinates" : [ 144.9519189304, -37.8312712357 ]
			},
			"properties" : {
				"Table_Row_ID" : 85
			}
		},
		{
			"type" : "Feature",
			"geometry" : {
				"type" : "Point",
				"coordinates" : [ 144.9534356387, -37.8302960719 ]
			},
			"properties" : {
				"Table_Row_ID" : 86
			}
		},
		{
			"type" : "Feature",
			"geometry" : {
				"type" : "Point",
				"coordinates" : [ 144.9628695882, -37.8300894708 ]
			},
			"properties" : {
				"Table_Row_ID" : 87
			}
		},
		{
			"type" : "Feature",
			"geometry" : {
				"type" : "Point",
				"coordinates" : [ 144.9951833505, -37.8773794313 ]
			},
			"properties" : {
				"Table_Row_ID" : 88
			}
		},
		{
			"type" : "Feature",
			"geometry" : {
				"type" : "Point",
				"coordinates" : [ 144.9337091756, -37.8414308745 ]
			},
			"properties" : {
				"Table_Row_ID" : 89
			}
		},
		{
			"type" : "Feature",
			"geometry" : {
				"type" : "Point",
				"coordinates" : [ 144.9750186949, -37.860366177 ]
			},
			"properties" : {
				"Table_Row_ID" : 90
			}
		},
		{
			"type" : "Feature",
			"geometry" : {
				"type" : "Point",
				"coordinates" : [ 144.9565920295, -37.8317551105 ]
			},
			"properties" : {
				"Table_Row_ID" : 91
			}
		},
		{
			"type" : "Feature",
			"geometry" : {
				"type" : "Point",
				"coordinates" : [ 144.9858954993, -37.8842684248 ]
			},
			"properties" : {
				"Table_Row_ID" : 92
			}
		},
		{
			"type" : "Feature",
			"geometry" : {
				"type" : "Point",
				"coordinates" : [ 144.9839282529, -37.8746222922 ]
			},
			"properties" : {
				"Table_Row_ID" : 93
			}
		},
		{
			"type" : "Feature",
			"geometry" : {
				"type" : "Point",
				"coordinates" : [ 145.0040784534, -37.8597928892 ]
			},
			"properties" : {
				"Table_Row_ID" : 94
			}
		},
		{
			"type" : "Feature",
			"geometry" : {
				"type" : "Point",
				"coordinates" : [ 144.9923829159, -37.8680385995 ]
			},
			"properties" : {
				"Table_Row_ID" : 95
			}
		},
		{
			"type" : "Feature",
			"geometry" : {
				"type" : "Point",
				"coordinates" : [ 144.9914514538, -37.8680557737 ]
			},
			"properties" : {
				"Table_Row_ID" : 96
			}
		},
		{
			"type" : "Feature",
			"geometry" : {
				"type" : "Point",
				"coordinates" : [ 144.9849552645, -37.890087744 ]
			},
			"properties" : {
				"Table_Row_ID" : 97
			}
		},
		{
			"type" : "Feature",
			"geometry" : {
				"type" : "Point",
				"coordinates" : [ 144.9841899853, -37.8887719477 ]
			},
			"properties" : {
				"Table_Row_ID" : 98
			}
		},
		{
			"type" : "Feature",
			"geometry" : {
				"type" : "Point",
				"coordinates" : [ 144.9840043497, -37.8879449766 ]
			},
			"properties" : {
				"Table_Row_ID" : 99
			}
		},
		{
			"type" : "Feature",
			"geometry" : {
				"type" : "Point",
				"coordinates" : [ 144.946680617, -37.843682357 ]
			},
			"properties" : {
				"Table_Row_ID" : 100
			}
		},
		{
			"type" : "Feature",
			"geometry" : {
				"type" : "Point",
				"coordinates" : [ 144.9760293895, -37.8718596955 ]
			},
			"properties" : {
				"Table_Row_ID" : 101
			}
		},
		{
			"type" : "Feature",
			"geometry" : {
				"type" : "Point",
				"coordinates" : [ 144.9786121967, -37.8840194926 ]
			},
			"properties" : {
				"Table_Row_ID" : 102
			}
		},
		{
			"type" : "Feature",
			"geometry" : {
				"type" : "Point",
				"coordinates" : [ 144.9366718979, -37.8429645061 ]
			},
			"properties" : {
				"Table_Row_ID" : 103
			}
		},
		{
			"type" : "Feature",
			"geometry" : {
				"type" : "Point",
				"coordinates" : [ 144.9317688712, -37.8417970406 ]
			},
			"properties" : {
				"Table_Row_ID" : 104
			}
		},
		{
			"type" : "Feature",
			"geometry" : {
				"type" : "Point",
				"coordinates" : [ 144.9319585446, -37.8412108945 ]
			},
			"properties" : {
				"Table_Row_ID" : 105
			}
		},
		{
			"type" : "Feature",
			"geometry" : {
				"type" : "Point",
				"coordinates" : [ 144.9884600219, -37.869005715 ]
			},
			"properties" : {
				"Table_Row_ID" : 106
			}
		},
		{
			"type" : "Feature",
			"geometry" : {
				"type" : "Point",
				"coordinates" : [ 144.9916143862, -37.8689872034 ]
			},
			"properties" : {
				"Table_Row_ID" : 107
			}
		},
		{
			"type" : "Feature",
			"geometry" : {
				"type" : "Point",
				"coordinates" : [ 144.9869459902, -37.8636545263 ]
			},
			"properties" : {
				"Table_Row_ID" : 108
			}
		},
		{
			"type" : "Feature",
			"geometry" : {
				"type" : "Point",
				"coordinates" : [ 144.920444494, -37.8368414915 ]
			},
			"properties" : {
				"Table_Row_ID" : 109
			}
		},
		{
			"type" : "Feature",
			"geometry" : {
				"type" : "Point",
				"coordinates" : [ 144.974986873, -37.8668359812 ]
			},
			"properties" : {
				"Table_Row_ID" : 110
			}
		},
		{
			"type" : "Feature",
			"geometry" : {
				"type" : "Point",
				"coordinates" : [ 144.9835193839, -37.8681328653 ]
			},
			"properties" : {
				"Table_Row_ID" : 111
			}
		},
		{
			"type" : "Feature",
			"geometry" : {
				"type" : "Point",
				"coordinates" : [ 144.9374704448, -37.8355984382 ]
			},
			"properties" : {
				"Table_Row_ID" : 112
			}
		},
		{
			"type" : "Feature",
			"geometry" : {
				"type" : "Point",
				"coordinates" : [ 144.9375373345, -37.8355571279 ]
			},
			"properties" : {
				"Table_Row_ID" : 113
			}
		},
		{
			"type" : "Feature",
			"geometry" : {
				"type" : "Point",
				"coordinates" : [ 144.9958243003, -37.8759937924 ]
			},
			"properties" : {
				"Table_Row_ID" : 114
			}
		},
		{
			"type" : "Feature",
			"geometry" : {
				"type" : "Point",
				"coordinates" : [ 144.9743700814, -37.8614247594 ]
			},
			"properties" : {
				"Table_Row_ID" : 115
			}
		},
		{
			"type" : "Feature",
			"geometry" : {
				"type" : "Point",
				"coordinates" : [ 144.9428617373, -37.8364355432 ]
			},
			"properties" : {
				"Table_Row_ID" : 116
			}
		},
		{
			"type" : "Feature",
			"geometry" : {
				"type" : "Point",
				"coordinates" : [ 144.9408647488, -37.8400453896 ]
			},
			"properties" : {
				"Table_Row_ID" : 117
			}
		},
		{
			"type" : "Feature",
			"geometry" : {
				"type" : "Point",
				"coordinates" : [ 144.9919856524, -37.8686534151 ]
			},
			"properties" : {
				"Table_Row_ID" : 118
			}
		},
		{
			"type" : "Feature",
			"geometry" : {
				"type" : "Point",
				"coordinates" : [ 144.9641567752, -37.8320526499 ]
			},
			"properties" : {
				"Table_Row_ID" : 119
			}
		},
		{
			"type" : "Feature",
			"geometry" : {
				"type" : "Point",
				"coordinates" : [ 144.990194695, -37.868723233 ]
			},
			"properties" : {
				"Table_Row_ID" : 120
			}
		},
		{
			"type" : "Feature",
			"geometry" : {
				"type" : "Point",
				"coordinates" : [ 144.9686594947, -37.8367429579 ]
			},
			"properties" : {
				"Table_Row_ID" : 121
			}
		},
		{
			"type" : "Feature",
			"geometry" : {
				"type" : "Point",
				"coordinates" : [ 144.974714067, -37.865817136 ]
			},
			"properties" : {
				"Table_Row_ID" : 122
			}
		},
		{
			"type" : "Feature",
			"geometry" : {
				"type" : "Point",
				"coordinates" : [ 144.9773352573, -37.8652133203 ]
			},
			"properties" : {
				"Table_Row_ID" : 123
			}
		},
		{
			"type" : "Feature",
			"geometry" : {
				"type" : "Point",
				"coordinates" : [ 144.9623333202, -37.833661356 ]
			},
			"properties" : {
				"Table_Row_ID" : 124
			}
		},
		{
			"type" : "Feature",
			"geometry" : {
				"type" : "Point",
				"coordinates" : [ 144.9809838754, -37.8577931669 ]
			},
			"properties" : {
				"Table_Row_ID" : 125
			}
		},
		{
			"type" : "Feature",
			"geometry" : {
				"type" : "Point",
				"coordinates" : [ 144.9589177391, -37.8352557734 ]
			},
			"properties" : {
				"Table_Row_ID" : 126
			}
		},
		{
			"type" : "Feature",
			"geometry" : {
				"type" : "Point",
				"coordinates" : [ 144.9513404162, -37.8420532014 ]
			},
			"properties" : {
				"Table_Row_ID" : 127
			}
		},
		{
			"type" : "Feature",
			"geometry" : {
				"type" : "Point",
				"coordinates" : [ 144.9609189672, -37.8368176295 ]
			},
			"properties" : {
				"Table_Row_ID" : 128
			}
		},
		{
			"type" : "Feature",
			"geometry" : {
				"type" : "Point",
				"coordinates" : [ 144.9761275828, -37.8596191394 ]
			},
			"properties" : {
				"Table_Row_ID" : 129
			}
		},
		{
			"type" : "Feature",
			"geometry" : {
				"type" : "Point",
				"coordinates" : [ 144.9917034979, -37.8684775033 ]
			},
			"properties" : {
				"Table_Row_ID" : 130
			}
		},
		{
			"type" : "Feature",
			"geometry" : {
				"type" : "Point",
				"coordinates" : [ 144.9612714588, -37.8371916236 ]
			},
			"properties" : {
				"Table_Row_ID" : 131
			}
		},
		{
			"type" : "Feature",
			"geometry" : {
				"type" : "Point",
				"coordinates" : [ 144.9621969935, -37.8498485001 ]
			},
			"properties" : {
				"Table_Row_ID" : 132
			}
		},
		{
			"type" : "Feature",
			"geometry" : {
				"type" : "Point",
				"coordinates" : [ 144.9860556619, -37.8648767786 ]
			},
			"properties" : {
				"Table_Row_ID" : 133
			}
		},
		{
			"type" : "Feature",
			"geometry" : {
				"type" : "Point",
				"coordinates" : [ 144.9961316048, -37.8690296938 ]
			},
			"properties" : {
				"Table_Row_ID" : 134
			}
		},
		{
			"type" : "Feature",
			"geometry" : {
				"type" : "Point",
				"coordinates" : [ 144.956011759, -37.8331556955 ]
			},
			"properties" : {
				"Table_Row_ID" : 135
			}
		},
		{
			"type" : "Feature",
			"geometry" : {
				"type" : "Point",
				"coordinates" : [ 144.9747045192, -37.8615166486 ]
			},
			"properties" : {
				"Table_Row_ID" : 136
			}
		},
		{
			"type" : "Feature",
			"geometry" : {
				"type" : "Point",
				"coordinates" : [ 144.9506278491, -37.8346535912 ]
			},
			"properties" : {
				"Table_Row_ID" : 137
			}
		},
		{
			"type" : "Feature",
			"geometry" : {
				"type" : "Point",
				"coordinates" : [ 144.9751455629, -37.8360293889 ]
			},
			"properties" : {
				"Table_Row_ID" : 138
			}
		},
		{
			"type" : "Feature",
			"geometry" : {
				"type" : "Point",
				"coordinates" : [ 144.9526204904, -37.8426105967 ]
			},
			"properties" : {
				"Table_Row_ID" : 139
			}
		},
		{
			"type" : "Feature",
			"geometry" : {
				"type" : "Point",
				"coordinates" : [ 144.9813346643, -37.8513213398 ]
			},
			"properties" : {
				"Table_Row_ID" : 140
			}
		},
		{
			"type" : "Feature",
			"geometry" : {
				"type" : "Point",
				"coordinates" : [ 144.9820352768, -37.8548662646 ]
			},
			"properties" : {
				"Table_Row_ID" : 141
			}
		},
		{
			"type" : "Feature",
			"geometry" : {
				"type" : "Point",
				"coordinates" : [ 144.977488824, -37.8662714666 ]
			},
			"properties" : {
				"Table_Row_ID" : 142
			}
		},
		{
			"type" : "Feature",
			"geometry" : {
				"type" : "Point",
				"coordinates" : [ 144.9603300218, -37.8306496004 ]
			},
			"properties" : {
				"Table_Row_ID" : 143
			}
		},
		{
			"type" : "Feature",
			"geometry" : {
				"type" : "Point",
				"coordinates" : [ 144.9475419327, -37.8471229484 ]
			},
			"properties" : {
				"Table_Row_ID" : 144
			}
		},
		{
			"type" : "Feature",
			"geometry" : {
				"type" : "Point",
				"coordinates" : [ 144.9885917555, -37.8570439657 ]
			},
			"properties" : {
				"Table_Row_ID" : 145
			}
		},
		{
			"type" : "Feature",
			"geometry" : {
				"type" : "Point",
				"coordinates" : [ 144.9486453834, -37.8476404061 ]
			},
			"properties" : {
				"Table_Row_ID" : 146
			}
		},
		{
			"type" : "Feature",
			"geometry" : {
				"type" : "Point",
				"coordinates" : [ 144.9994926031, -37.8687149415 ]
			},
			"properties" : {
				"Table_Row_ID" : 147
			}
		},
		{
			"type" : "Feature",
			"geometry" : {
				"type" : "Point",
				"coordinates" : [ 144.9759792014, -37.867159656 ]
			},
			"properties" : {
				"Table_Row_ID" : 148
			}
		},
		{
			"type" : "Feature",
			"geometry" : {
				"type" : "Point",
				"coordinates" : [ 144.9758830204, -37.8669734094 ]
			},
			"properties" : {
				"Table_Row_ID" : 149
			}
		},
		{
			"type" : "Feature",
			"geometry" : {
				"type" : "Point",
				"coordinates" : [ 144.9933713309, -37.8692114251 ]
			},
			"properties" : {
				"Table_Row_ID" : 150
			}
		},
		{
			"type" : "Feature",
			"geometry" : {
				"type" : "Point",
				"coordinates" : [ 144.9751657044, -37.8394683174 ]
			},
			"properties" : {
				"Table_Row_ID" : 151
			}
		},
		{
			"type" : "Feature",
			"geometry" : {
				"type" : "Point",
				"coordinates" : [ 144.9987522221, -37.8718401422 ]
			},
			"properties" : {
				"Table_Row_ID" : 152
			}
		},
		{
			"type" : "Feature",
			"geometry" : {
				"type" : "Point",
				"coordinates" : [ 144.9606643675, -37.8358727665 ]
			},
			"properties" : {
				"Table_Row_ID" : 153
			}
		},
		{
			"type" : "Feature",
			"geometry" : {
				"type" : "Point",
				"coordinates" : [ 144.9524153156, -37.844532138 ]
			},
			"properties" : {
				"Table_Row_ID" : 154
			}
		},
		{
			"type" : "Feature",
			"geometry" : {
				"type" : "Point",
				"coordinates" : [ 144.9443608578, -37.8335471274 ]
			},
			"properties" : {
				"Table_Row_ID" : 155
			}
		},
		{
			"type" : "Feature",
			"geometry" : {
				"type" : "Point",
				"coordinates" : [ 144.9421508245, -37.8412003292 ]
			},
			"properties" : {
				"Table_Row_ID" : 156
			}
		},
		{
			"type" : "Feature",
			"geometry" : {
				"type" : "Point",
				"coordinates" : [ 144.9903721469, -37.8687230559 ]
			},
			"properties" : {
				"Table_Row_ID" : 157
			}
		},
		{
			"type" : "Feature",
			"geometry" : {
				"type" : "Point",
				"coordinates" : [ 144.9390306286, -37.834084535 ]
			},
			"properties" : {
				"Table_Row_ID" : 158
			}
		},
		{
			"type" : "Feature",
			"geometry" : {
				"type" : "Point",
				"coordinates" : [ 144.9473593443, -37.8373549409 ]
			},
			"properties" : {
				"Table_Row_ID" : 159
			}
		},
		{
			"type" : "Feature",
			"geometry" : {
				"type" : "Point",
				"coordinates" : [ 144.9647969449, -37.8500151153 ]
			},
			"properties" : {
				"Table_Row_ID" : 160
			}
		},
		{
			"type" : "Feature",
			"geometry" : {
				"type" : "Point",
				"coordinates" : [ 144.9559421599, -37.840530699 ]
			},
			"properties" : {
				"Table_Row_ID" : 161
			}
		},
		{
			"type" : "Feature",
			"geometry" : {
				"type" : "Point",
				"coordinates" : [ 144.9505377017, -37.8465527734 ]
			},
			"properties" : {
				"Table_Row_ID" : 162
			}
		},
		{
			"type" : "Feature",
			"geometry" : {
				"type" : "Point",
				"coordinates" : [ 144.9893147225, -37.8795570718 ]
			},
			"properties" : {
				"Table_Row_ID" : 163
			}
		},
		{
			"type" : "Feature",
			"geometry" : {
				"type" : "Point",
				"coordinates" : [ 144.9491779187, -37.8464438962 ]
			},
			"properties" : {
				"Table_Row_ID" : 164
			}
		},
		{
			"type" : "Feature",
			"geometry" : {
				"type" : "Point",
				"coordinates" : [ 144.9786367928, -37.859177527 ]
			},
			"properties" : {
				"Table_Row_ID" : 165
			}
		},
		{
			"type" : "Feature",
			"geometry" : {
				"type" : "Point",
				"coordinates" : [ 144.9633674184, -37.8348023334 ]
			},
			"properties" : {
				"Table_Row_ID" : 166
			}
		},
		{
			"type" : "Feature",
			"geometry" : {
				"type" : "Point",
				"coordinates" : [ 144.9918123883, -37.8664717805 ]
			},
			"properties" : {
				"Table_Row_ID" : 167
			}
		},
		{
			"type" : "Feature",
			"geometry" : {
				"type" : "Point",
				"coordinates" : [ 144.958449395, -37.8342382745 ]
			},
			"properties" : {
				"Table_Row_ID" : 168
			}
		},
		{
			"type" : "Feature",
			"geometry" : {
				"type" : "Point",
				"coordinates" : [ 144.9586101979, -37.8492744997 ]
			},
			"properties" : {
				"Table_Row_ID" : 169
			}
		},
		{
			"type" : "Feature",
			"geometry" : {
				"type" : "Point",
				"coordinates" : [ 144.9565079952, -37.8468796006 ]
			},
			"properties" : {
				"Table_Row_ID" : 170
			}
		},
		{
			"type" : "Feature",
			"geometry" : {
				"type" : "Point",
				"coordinates" : [ 144.9474325574, -37.8315641244 ]
			},
			"properties" : {
				"Table_Row_ID" : 171
			}
		},
		{
			"type" : "Feature",
			"geometry" : {
				"type" : "Point",
				"coordinates" : [ 144.9816723865, -37.8717948904 ]
			},
			"properties" : {
				"Table_Row_ID" : 172
			}
		},
		{
			"type" : "Feature",
			"geometry" : {
				"type" : "Point",
				"coordinates" : [ 144.9336911482, -37.8361133203 ]
			},
			"properties" : {
				"Table_Row_ID" : 173
			}
		},
		{
			"type" : "Feature",
			"geometry" : {
				"type" : "Point",
				"coordinates" : [ 144.9802687487, -37.867111083 ]
			},
			"properties" : {
				"Table_Row_ID" : 174
			}
		},
		{
			"type" : "Feature",
			"geometry" : {
				"type" : "Point",
				"coordinates" : [ 144.9969129144, -37.8676624976 ]
			},
			"properties" : {
				"Table_Row_ID" : 175
			}
		},
		{
			"type" : "Feature",
			"geometry" : {
				"type" : "Point",
				"coordinates" : [ 144.9931785157, -37.8688035939 ]
			},
			"properties" : {
				"Table_Row_ID" : 176
			}
		},
		{
			"type" : "Feature",
			"geometry" : {
				"type" : "Point",
				"coordinates" : [ 144.9896902961, -37.8652233795 ]
			},
			"properties" : {
				"Table_Row_ID" : 177
			}
		},
		{
			"type" : "Feature",
			"geometry" : {
				"type" : "Point",
				"coordinates" : [ 144.9607515989, -37.8504008234 ]
			},
			"properties" : {
				"Table_Row_ID" : 178
			}
		},
		{
			"type" : "Feature",
			"geometry" : {
				"type" : "Point",
				"coordinates" : [ 144.9483558118, -37.8433536027 ]
			},
			"properties" : {
				"Table_Row_ID" : 179
			}
		},
		{
			"type" : "Feature",
			"geometry" : {
				"type" : "Point",
				"coordinates" : [ 144.9961141961, -37.8714193619 ]
			},
			"properties" : {
				"Table_Row_ID" : 180
			}
		},
		{
			"type" : "Feature",
			"geometry" : {
				"type" : "Point",
				"coordinates" : [ 144.9418787562, -37.8392507034 ]
			},
			"properties" : {
				"Table_Row_ID" : 181
			}
		},
		{
			"type" : "Feature",
			"geometry" : {
				"type" : "Point",
				"coordinates" : [ 144.980624661, -37.8698852045 ]
			},
			"properties" : {
				"Table_Row_ID" : 182
			}
		},
		{
			"type" : "Feature",
			"geometry" : {
				"type" : "Point",
				"coordinates" : [ 144.9741362047, -37.8570648171 ]
			},
			"properties" : {
				"Table_Row_ID" : 183
			}
		},
		{
			"type" : "Feature",
			"geometry" : {
				"type" : "Point",
				"coordinates" : [ 144.9451140137, -37.8383091078 ]
			},
			"properties" : {
				"Table_Row_ID" : 184
			}
		},
		{
			"type" : "Feature",
			"geometry" : {
				"type" : "Point",
				"coordinates" : [ 144.9847806559, -37.8565396351 ]
			},
			"properties" : {
				"Table_Row_ID" : 185
			}
		},
		{
			"type" : "Feature",
			"geometry" : {
				"type" : "Point",
				"coordinates" : [ 144.9915599579, -37.8654703864 ]
			},
			"properties" : {
				"Table_Row_ID" : 186
			}
		},
		{
			"type" : "Feature",
			"geometry" : {
				"type" : "Point",
				"coordinates" : [ 144.9600137282, -37.8376327144 ]
			},
			"properties" : {
				"Table_Row_ID" : 187
			}
		},
		{
			"type" : "Feature",
			"geometry" : {
				"type" : "Point",
				"coordinates" : [ 144.9649365758, -37.8321613663 ]
			},
			"properties" : {
				"Table_Row_ID" : 188
			}
		},
		{
			"type" : "Feature",
			"geometry" : {
				"type" : "Point",
				"coordinates" : [ 144.9637791627, -37.8336154635 ]
			},
			"properties" : {
				"Table_Row_ID" : 189
			}
		},
		{
			"type" : "Feature",
			"geometry" : {
				"type" : "Point",
				"coordinates" : [ 144.99188362, -37.859411639 ]
			},
			"properties" : {
				"Table_Row_ID" : 190
			}
		},
		{
			"type" : "Feature",
			"geometry" : {
				"type" : "Point",
				"coordinates" : [ 144.9429556649, -37.8377560494 ]
			},
			"properties" : {
				"Table_Row_ID" : 191
			}
		},
		{
			"type" : "Feature",
			"geometry" : {
				"type" : "Point",
				"coordinates" : [ 144.9952658097, -37.8690722523 ]
			},
			"properties" : {
				"Table_Row_ID" : 192
			}
		},
		{
			"type" : "Feature",
			"geometry" : {
				"type" : "Point",
				"coordinates" : [ 144.9572821042, -37.8351098245 ]
			},
			"properties" : {
				"Table_Row_ID" : 193
			}
		},
		{
			"type" : "Feature",
			"geometry" : {
				"type" : "Point",
				"coordinates" : [ 144.9590878662, -37.8335262105 ]
			},
			"properties" : {
				"Table_Row_ID" : 194
			}
		},
		{
			"type" : "Feature",
			"geometry" : {
				"type" : "Point",
				"coordinates" : [ 144.9544076539, -37.8376225951 ]
			},
			"properties" : {
				"Table_Row_ID" : 195
			}
		},
		{
			"type" : "Feature",
			"geometry" : {
				"type" : "Point",
				"coordinates" : [ 144.9565673769, -37.8398218175 ]
			},
			"properties" : {
				"Table_Row_ID" : 196
			}
		},
		{
			"type" : "Feature",
			"geometry" : {
				"type" : "Point",
				"coordinates" : [ 144.9995667584, -37.8612842538 ]
			},
			"properties" : {
				"Table_Row_ID" : 197
			}
		},
		{
			"type" : "Feature",
			"geometry" : {
				"type" : "Point",
				"coordinates" : [ 144.9431808767, -37.8378147639 ]
			},
			"properties" : {
				"Table_Row_ID" : 198
			}
		},
		{
			"type" : "Feature",
			"geometry" : {
				"type" : "Point",
				"coordinates" : [ 144.9716027086, -37.833561234 ]
			},
			"properties" : {
				"Table_Row_ID" : 199
			}
		},
		{
			"type" : "Feature",
			"geometry" : {
				"type" : "Point",
				"coordinates" : [ 144.9670228294, -37.8560620859 ]
			},
			"properties" : {
				"Table_Row_ID" : 200
			}
		},
		{
			"type" : "Feature",
			"geometry" : {
				"type" : "Point",
				"coordinates" : [ 144.9552182389, -37.8358858639 ]
			},
			"properties" : {
				"Table_Row_ID" : 201
			}
		},
		{
			"type" : "Feature",
			"geometry" : {
				"type" : "Point",
				"coordinates" : [ 144.9897070898, -37.8795185453 ]
			},
			"properties" : {
				"Table_Row_ID" : 202
			}
		},
		{
			"type" : "Feature",
			"geometry" : {
				"type" : "Point",
				"coordinates" : [ 144.994149598, -37.868784469 ]
			},
			"properties" : {
				"Table_Row_ID" : 203
			}
		},
		{
			"type" : "Feature",
			"geometry" : {
				"type" : "Point",
				"coordinates" : [ 144.9650641208, -37.8513393203 ]
			},
			"properties" : {
				"Table_Row_ID" : 204
			}
		},
		{
			"type" : "Feature",
			"geometry" : {
				"type" : "Point",
				"coordinates" : [ 144.9984724088, -37.8694637989 ]
			},
			"properties" : {
				"Table_Row_ID" : 205
			}
		},
		{
			"type" : "Feature",
			"geometry" : {
				"type" : "Point",
				"coordinates" : [ 144.9720231035, -37.8342207817 ]
			},
			"properties" : {
				"Table_Row_ID" : 206
			}
		},
		{
			"type" : "Feature",
			"geometry" : {
				"type" : "Point",
				"coordinates" : [ 144.9907937346, -37.8804412863 ]
			},
			"properties" : {
				"Table_Row_ID" : 207
			}
		},
		{
			"type" : "Feature",
			"geometry" : {
				"type" : "Point",
				"coordinates" : [ 144.989987559, -37.8890673983 ]
			},
			"properties" : {
				"Table_Row_ID" : 208
			}
		},
		{
			"type" : "Feature",
			"geometry" : {
				"type" : "Point",
				"coordinates" : [ 144.9514075759, -37.8465369212 ]
			},
			"properties" : {
				"Table_Row_ID" : 209
			}
		},
		{
			"type" : "Feature",
			"geometry" : {
				"type" : "Point",
				"coordinates" : [ 144.9500157932, -37.8403060376 ]
			},
			"properties" : {
				"Table_Row_ID" : 210
			}
		},
		{
			"type" : "Feature",
			"geometry" : {
				"type" : "Point",
				"coordinates" : [ 144.9572160206, -37.8326102423 ]
			},
			"properties" : {
				"Table_Row_ID" : 211
			}
		},
		{
			"type" : "Feature",
			"geometry" : {
				"type" : "Point",
				"coordinates" : [ 144.9243651452, -37.8391177283 ]
			},
			"properties" : {
				"Table_Row_ID" : 212
			}
		},
		{
			"type" : "Feature",
			"geometry" : {
				"type" : "Point",
				"coordinates" : [ 144.9553961083, -37.8403154302 ]
			},
			"properties" : {
				"Table_Row_ID" : 213
			}
		},
		{
			"type" : "Feature",
			"geometry" : {
				"type" : "Point",
				"coordinates" : [ 144.9687451979, -37.8319913282 ]
			},
			"properties" : {
				"Table_Row_ID" : 214
			}
		},
		{
			"type" : "Feature",
			"geometry" : {
				"type" : "Point",
				"coordinates" : [ 144.9559864315, -37.8415913901 ]
			},
			"properties" : {
				"Table_Row_ID" : 215
			}
		},
		{
			"type" : "Feature",
			"geometry" : {
				"type" : "Point",
				"coordinates" : [ 144.9712921007, -37.8594709332 ]
			},
			"properties" : {
				"Table_Row_ID" : 216
			}
		},
		{
			"type" : "Feature",
			"geometry" : {
				"type" : "Point",
				"coordinates" : [ 144.9638415457, -37.8508338981 ]
			},
			"properties" : {
				"Table_Row_ID" : 217
			}
		},
		{
			"type" : "Feature",
			"geometry" : {
				"type" : "Point",
				"coordinates" : [ 144.9752415841, -37.8598214 ]
			},
			"properties" : {
				"Table_Row_ID" : 218
			}
		},
		{
			"type" : "Feature",
			"geometry" : {
				"type" : "Point",
				"coordinates" : [ 144.9760394669, -37.8384341886 ]
			},
			"properties" : {
				"Table_Row_ID" : 219
			}
		},
		{
			"type" : "Feature",
			"geometry" : {
				"type" : "Point",
				"coordinates" : [ 144.9791536654, -37.8641372321 ]
			},
			"properties" : {
				"Table_Row_ID" : 220
			}
		},
		{
			"type" : "Feature",
			"geometry" : {
				"type" : "Point",
				"coordinates" : [ 144.9687056256, -37.835568773 ]
			},
			"properties" : {
				"Table_Row_ID" : 221
			}
		},
		{
			"type" : "Feature",
			"geometry" : {
				"type" : "Point",
				"coordinates" : [ 144.9620329815, -37.8502211154 ]
			},
			"properties" : {
				"Table_Row_ID" : 222
			}
		},
		{
			"type" : "Feature",
			"geometry" : {
				"type" : "Point",
				"coordinates" : [ 144.9821006064, -37.8640709465 ]
			},
			"properties" : {
				"Table_Row_ID" : 223
			}
		},
		{
			"type" : "Feature",
			"geometry" : {
				"type" : "Point",
				"coordinates" : [ 144.983036201, -37.879239157 ]
			},
			"properties" : {
				"Table_Row_ID" : 224
			}
		},
		{
			"type" : "Feature",
			"geometry" : {
				"type" : "Point",
				"coordinates" : [ 144.9607552082, -37.830522282 ]
			},
			"properties" : {
				"Table_Row_ID" : 225
			}
		},
		{
			"type" : "Feature",
			"geometry" : {
				"type" : "Point",
				"coordinates" : [ 144.997624286, -37.8644421198 ]
			},
			"properties" : {
				"Table_Row_ID" : 226
			}
		},
		{
			"type" : "Feature",
			"geometry" : {
				"type" : "Point",
				"coordinates" : [ 144.9974902044, -37.8767824049 ]
			},
			"properties" : {
				"Table_Row_ID" : 227
			}
		},
		{
			"type" : "Feature",
			"geometry" : {
				"type" : "Point",
				"coordinates" : [ 144.9829217945, -37.8821885213 ]
			},
			"properties" : {
				"Table_Row_ID" : 228
			}
		},
		{
			"type" : "Feature",
			"geometry" : {
				"type" : "Point",
				"coordinates" : [ 144.9610510738, -37.8517186671 ]
			},
			"properties" : {
				"Table_Row_ID" : 229
			}
		},
		{
			"type" : "Feature",
			"geometry" : {
				"type" : "Point",
				"coordinates" : [ 144.9480853224, -37.8465265771 ]
			},
			"properties" : {
				"Table_Row_ID" : 230
			}
		},
		{
			"type" : "Feature",
			"geometry" : {
				"type" : "Point",
				"coordinates" : [ 144.9608701108, -37.851624325 ]
			},
			"properties" : {
				"Table_Row_ID" : 231
			}
		},
		{
			"type" : "Feature",
			"geometry" : {
				"type" : "Point",
				"coordinates" : [ 144.9871794269, -37.8852198278 ]
			},
			"properties" : {
				"Table_Row_ID" : 232
			}
		},
		{
			"type" : "Feature",
			"geometry" : {
				"type" : "Point",
				"coordinates" : [ 144.9510773071, -37.8444901006 ]
			},
			"properties" : {
				"Table_Row_ID" : 233
			}
		},
		{
			"type" : "Feature",
			"geometry" : {
				"type" : "Point",
				"coordinates" : [ 144.9552626477, -37.8411307591 ]
			},
			"properties" : {
				"Table_Row_ID" : 234
			}
		},
		{
			"type" : "Feature",
			"geometry" : {
				"type" : "Point",
				"coordinates" : [ 144.9937349225, -37.861811861 ]
			},
			"properties" : {
				"Table_Row_ID" : 235
			}
		},
		{
			"type" : "Feature",
			"geometry" : {
				"type" : "Point",
				"coordinates" : [ 144.9587259831, -37.8309171583 ]
			},
			"properties" : {
				"Table_Row_ID" : 236
			}
		},
		{
			"type" : "Feature",
			"geometry" : {
				"type" : "Point",
				"coordinates" : [ 144.9346797839, -37.8349527176 ]
			},
			"properties" : {
				"Table_Row_ID" : 237
			}
		},
		{
			"type" : "Feature",
			"geometry" : {
				"type" : "Point",
				"coordinates" : [ 144.9574607177, -37.8320585708 ]
			},
			"properties" : {
				"Table_Row_ID" : 238
			}
		},
		{
			"type" : "Feature",
			"geometry" : {
				"type" : "Point",
				"coordinates" : [ 144.9514888436, -37.8357260313 ]
			},
			"properties" : {
				"Table_Row_ID" : 239
			}
		},
		{
			"type" : "Feature",
			"geometry" : {
				"type" : "Point",
				"coordinates" : [ 144.9898425382, -37.8661523561 ]
			},
			"properties" : {
				"Table_Row_ID" : 240
			}
		},
		{
			"type" : "Feature",
			"geometry" : {
				"type" : "Point",
				"coordinates" : [ 144.9382330457, -37.8332489604 ]
			},
			"properties" : {
				"Table_Row_ID" : 241
			}
		},
		{
			"type" : "Feature",
			"geometry" : {
				"type" : "Point",
				"coordinates" : [ 144.9456956502, -37.835193555 ]
			},
			"properties" : {
				"Table_Row_ID" : 242
			}
		},
		{
			"type" : "Feature",
			"geometry" : {
				"type" : "Point",
				"coordinates" : [ 144.9586433557, -37.8382787886 ]
			},
			"properties" : {
				"Table_Row_ID" : 243
			}
		},
		{
			"type" : "Feature",
			"geometry" : {
				"type" : "Point",
				"coordinates" : [ 144.9768633801, -37.8584644575 ]
			},
			"properties" : {
				"Table_Row_ID" : 244
			}
		},
		{
			"type" : "Feature",
			"geometry" : {
				"type" : "Point",
				"coordinates" : [ 144.9560310094, -37.8319177703 ]
			},
			"properties" : {
				"Table_Row_ID" : 245
			}
		},
		{
			"type" : "Feature",
			"geometry" : {
				"type" : "Point",
				"coordinates" : [ 144.9752046012, -37.8684939389 ]
			},
			"properties" : {
				"Table_Row_ID" : 246
			}
		},
		{
			"type" : "Feature",
			"geometry" : {
				"type" : "Point",
				"coordinates" : [ 144.9784333111, -37.8677204648 ]
			},
			"properties" : {
				"Table_Row_ID" : 247
			}
		},
		{
			"type" : "Feature",
			"geometry" : {
				"type" : "Point",
				"coordinates" : [ 144.9794209827, -37.8678663947 ]
			},
			"properties" : {
				"Table_Row_ID" : 248
			}
		},
		{
			"type" : "Feature",
			"geometry" : {
				"type" : "Point",
				"coordinates" : [ 144.9795937777, -37.8677955796 ]
			},
			"properties" : {
				"Table_Row_ID" : 249
			}
		},
		{
			"type" : "Feature",
			"geometry" : {
				"type" : "Point",
				"coordinates" : [ 144.9796460669, -37.8678506403 ]
			},
			"properties" : {
				"Table_Row_ID" : 250
			}
		},
		{
			"type" : "Feature",
			"geometry" : {
				"type" : "Point",
				"coordinates" : [ 144.9561558217, -37.8359202676 ]
			},
			"properties" : {
				"Table_Row_ID" : 251
			}
		},
		{
			"type" : "Feature",
			"geometry" : {
				"type" : "Point",
				"coordinates" : [ 144.9775717619, -37.8666376352 ]
			},
			"properties" : {
				"Table_Row_ID" : 252
			}
		},
		{
			"type" : "Feature",
			"geometry" : {
				"type" : "Point",
				"coordinates" : [ 144.9683488022, -37.8365124392 ]
			},
			"properties" : {
				"Table_Row_ID" : 253
			}
		},
		{
			"type" : "Feature",
			"geometry" : {
				"type" : "Point",
				"coordinates" : [ 144.9590571212, -37.8346022918 ]
			},
			"properties" : {
				"Table_Row_ID" : 254
			}
		},
		{
			"type" : "Feature",
			"geometry" : {
				"type" : "Point",
				"coordinates" : [ 144.959091238, -37.8345923934 ]
			},
			"properties" : {
				"Table_Row_ID" : 255
			}
		},
		{
			"type" : "Feature",
			"geometry" : {
				"type" : "Point",
				"coordinates" : [ 144.9890794725, -37.8810929417 ]
			},
			"properties" : {
				"Table_Row_ID" : 256
			}
		},
		{
			"type" : "Feature",
			"geometry" : {
				"type" : "Point",
				"coordinates" : [ 144.9841969918, -37.8819440791 ]
			},
			"properties" : {
				"Table_Row_ID" : 257
			}
		},
		{
			"type" : "Feature",
			"geometry" : {
				"type" : "Point",
				"coordinates" : [ 144.9563824067, -37.8328501172 ]
			},
			"properties" : {
				"Table_Row_ID" : 258
			}
		},
		{
			"type" : "Feature",
			"geometry" : {
				"type" : "Point",
				"coordinates" : [ 144.9400631291, -37.8412308186 ]
			},
			"properties" : {
				"Table_Row_ID" : 259
			}
		},
		{
			"type" : "Feature",
			"geometry" : {
				"type" : "Point",
				"coordinates" : [ 144.9955737655, -37.8763712171 ]
			},
			"properties" : {
				"Table_Row_ID" : 260
			}
		},
		{
			"type" : "Feature",
			"geometry" : {
				"type" : "Point",
				"coordinates" : [ 144.9369745496, -37.8346757894 ]
			},
			"properties" : {
				"Table_Row_ID" : 261
			}
		},
		{
			"type" : "Feature",
			"geometry" : {
				"type" : "Point",
				"coordinates" : [ 144.9852825306, -37.8597443971 ]
			},
			"properties" : {
				"Table_Row_ID" : 262
			}
		},
		{
			"type" : "Feature",
			"geometry" : {
				"type" : "Point",
				"coordinates" : [ 144.9493647914, -37.8360861328 ]
			},
			"properties" : {
				"Table_Row_ID" : 263
			}
		},
		{
			"type" : "Feature",
			"geometry" : {
				"type" : "Point",
				"coordinates" : [ 144.9412415897, -37.8358204992 ]
			},
			"properties" : {
				"Table_Row_ID" : 264
			}
		},
		{
			"type" : "Feature",
			"geometry" : {
				"type" : "Point",
				"coordinates" : [ 144.9722713293, -37.8569600405 ]
			},
			"properties" : {
				"Table_Row_ID" : 265
			}
		},
		{
			"type" : "Feature",
			"geometry" : {
				"type" : "Point",
				"coordinates" : [ 144.983431874, -37.869418196 ]
			},
			"properties" : {
				"Table_Row_ID" : 266
			}
		},
		{
			"type" : "Feature",
			"geometry" : {
				"type" : "Point",
				"coordinates" : [ 144.9798808826, -37.8599919363 ]
			},
			"properties" : {
				"Table_Row_ID" : 267
			}
		},
		{
			"type" : "Feature",
			"geometry" : {
				"type" : "Point",
				"coordinates" : [ 144.9617504635, -37.8325683662 ]
			},
			"properties" : {
				"Table_Row_ID" : 268
			}
		},
		{
			"type" : "Feature",
			"geometry" : {
				"type" : "Point",
				"coordinates" : [ 144.9592199612, -37.8347437551 ]
			},
			"properties" : {
				"Table_Row_ID" : 269
			}
		},
		{
			"type" : "Feature",
			"geometry" : {
				"type" : "Point",
				"coordinates" : [ 144.9875435542, -37.8741498836 ]
			},
			"properties" : {
				"Table_Row_ID" : 270
			}
		},
		{
			"type" : "Feature",
			"geometry" : {
				"type" : "Point",
				"coordinates" : [ 144.9568812747, -37.830385686 ]
			},
			"properties" : {
				"Table_Row_ID" : 271
			}
		},
		{
			"type" : "Feature",
			"geometry" : {
				"type" : "Point",
				"coordinates" : [ 144.960703192, -37.8318023185 ]
			},
			"properties" : {
				"Table_Row_ID" : 272
			}
		},
		{
			"type" : "Feature",
			"geometry" : {
				"type" : "Point",
				"coordinates" : [ 144.9620283961, -37.8312337648 ]
			},
			"properties" : {
				"Table_Row_ID" : 273
			}
		},
		{
			"type" : "Feature",
			"geometry" : {
				"type" : "Point",
				"coordinates" : [ 144.9590068491, -37.8466623883 ]
			},
			"properties" : {
				"Table_Row_ID" : 274
			}
		},
		{
			"type" : "Feature",
			"geometry" : {
				"type" : "Point",
				"coordinates" : [ 144.9165475836, -37.8395440927 ]
			},
			"properties" : {
				"Table_Row_ID" : 275
			}
		},
		{
			"type" : "Feature",
			"geometry" : {
				"type" : "Point",
				"coordinates" : [ 144.9486271731, -37.8354200964 ]
			},
			"properties" : {
				"Table_Row_ID" : 276
			}
		},
		{
			"type" : "Feature",
			"geometry" : {
				"type" : "Point",
				"coordinates" : [ 144.9176246732, -37.8365366617 ]
			},
			"properties" : {
				"Table_Row_ID" : 277
			}
		},
		{
			"type" : "Feature",
			"geometry" : {
				"type" : "Point",
				"coordinates" : [ 144.946286442, -37.8389788179 ]
			},
			"properties" : {
				"Table_Row_ID" : 278
			}
		},
		{
			"type" : "Feature",
			"geometry" : {
				"type" : "Point",
				"coordinates" : [ 144.9927685648, -37.8700376834 ]
			},
			"properties" : {
				"Table_Row_ID" : 279
			}
		},
		{
			"type" : "Feature",
			"geometry" : {
				"type" : "Point",
				"coordinates" : [ 144.9884531568, -37.8681980088 ]
			},
			"properties" : {
				"Table_Row_ID" : 280
			}
		},
		{
			"type" : "Feature",
			"geometry" : {
				"type" : "Point",
				"coordinates" : [ 144.9518567308, -37.8397754327 ]
			},
			"properties" : {
				"Table_Row_ID" : 281
			}
		},
		{
			"type" : "Feature",
			"geometry" : {
				"type" : "Point",
				"coordinates" : [ 144.9497648594, -37.8349311364 ]
			},
			"properties" : {
				"Table_Row_ID" : 282
			}
		},
		{
			"type" : "Feature",
			"geometry" : {
				"type" : "Point",
				"coordinates" : [ 144.9971146007, -37.8594622252 ]
			},
			"properties" : {
				"Table_Row_ID" : 283
			}
		},
		{
			"type" : "Feature",
			"geometry" : {
				"type" : "Point",
				"coordinates" : [ 144.9845913066, -37.8895523348 ]
			},
			"properties" : {
				"Table_Row_ID" : 284
			}
		},
		{
			"type" : "Feature",
			"geometry" : {
				"type" : "Point",
				"coordinates" : [ 144.9596681991, -37.8333595857 ]
			},
			"properties" : {
				"Table_Row_ID" : 285
			}
		},
		{
			"type" : "Feature",
			"geometry" : {
				"type" : "Point",
				"coordinates" : [ 144.9414895704, -37.8316859728 ]
			},
			"properties" : {
				"Table_Row_ID" : 286
			}
		},
		{
			"type" : "Feature",
			"geometry" : {
				"type" : "Point",
				"coordinates" : [ 144.9374490238, -37.8430170473 ]
			},
			"properties" : {
				"Table_Row_ID" : 287
			}
		},
		{
			"type" : "Feature",
			"geometry" : {
				"type" : "Point",
				"coordinates" : [ 144.9838034968, -37.8725621198 ]
			},
			"properties" : {
				"Table_Row_ID" : 288
			}
		},
		{
			"type" : "Feature",
			"geometry" : {
				"type" : "Point",
				"coordinates" : [ 144.9506142881, -37.8489146385 ]
			},
			"properties" : {
				"Table_Row_ID" : 289
			}
		},
		{
			"type" : "Feature",
			"geometry" : {
				"type" : "Point",
				"coordinates" : [ 144.9469275042, -37.8471267836 ]
			},
			"properties" : {
				"Table_Row_ID" : 290
			}
		},
		{
			"type" : "Feature",
			"geometry" : {
				"type" : "Point",
				"coordinates" : [ 144.9536560042, -37.8409467295 ]
			},
			"properties" : {
				"Table_Row_ID" : 291
			}
		},
		{
			"type" : "Feature",
			"geometry" : {
				"type" : "Point",
				"coordinates" : [ 144.9488268759, -37.8382970943 ]
			},
			"properties" : {
				"Table_Row_ID" : 292
			}
		},
		{
			"type" : "Feature",
			"geometry" : {
				"type" : "Point",
				"coordinates" : [ 144.9734746596, -37.8353864317 ]
			},
			"properties" : {
				"Table_Row_ID" : 293
			}
		},
		{
			"type" : "Feature",
			"geometry" : {
				"type" : "Point",
				"coordinates" : [ 144.9423769973, -37.8449798062 ]
			},
			"properties" : {
				"Table_Row_ID" : 294
			}
		},
		{
			"type" : "Feature",
			"geometry" : {
				"type" : "Point",
				"coordinates" : [ 144.9856447382, -37.8598451629 ]
			},
			"properties" : {
				"Table_Row_ID" : 295
			}
		},
		{
			"type" : "Feature",
			"geometry" : {
				"type" : "Point",
				"coordinates" : [ 144.9545438736, -37.8359027203 ]
			},
			"properties" : {
				"Table_Row_ID" : 296
			}
		},
		{
			"type" : "Feature",
			"geometry" : {
				"type" : "Point",
				"coordinates" : [ 144.9642941075, -37.8347254691 ]
			},
			"properties" : {
				"Table_Row_ID" : 297
			}
		},
		{
			"type" : "Feature",
			"geometry" : {
				"type" : "Point",
				"coordinates" : [ 144.9886256796, -37.886102949 ]
			},
			"properties" : {
				"Table_Row_ID" : 298
			}
		},
		{
			"type" : "Feature",
			"geometry" : {
				"type" : "Point",
				"coordinates" : [ 144.9416805101, -37.8435565598 ]
			},
			"properties" : {
				"Table_Row_ID" : 299
			}
		},
		{
			"type" : "Feature",
			"geometry" : {
				"type" : "Point",
				"coordinates" : [ 144.9344402208, -37.8362310497 ]
			},
			"properties" : {
				"Table_Row_ID" : 300
			}
		},
		{
			"type" : "Feature",
			"geometry" : {
				"type" : "Point",
				"coordinates" : [ 144.9613563828, -37.8541214714 ]
			},
			"properties" : {
				"Table_Row_ID" : 301
			}
		},
		{
			"type" : "Feature",
			"geometry" : {
				"type" : "Point",
				"coordinates" : [ 144.9506124277, -37.8345054737 ]
			},
			"properties" : {
				"Table_Row_ID" : 302
			}
		},
		{
			"type" : "Feature",
			"geometry" : {
				"type" : "Point",
				"coordinates" : [ 144.9747913861, -37.8658654977 ]
			},
			"properties" : {
				"Table_Row_ID" : 303
			}
		},
		{
			"type" : "Feature",
			"geometry" : {
				"type" : "Point",
				"coordinates" : [ 144.948627136, -37.832164286 ]
			},
			"properties" : {
				"Table_Row_ID" : 304
			}
		},
		{
			"type" : "Feature",
			"geometry" : {
				"type" : "Point",
				"coordinates" : [ 144.9520220873, -37.8338963883 ]
			},
			"properties" : {
				"Table_Row_ID" : 305
			}
		},
		{
			"type" : "Feature",
			"geometry" : {
				"type" : "Point",
				"coordinates" : [ 144.9346203477, -37.8390141099 ]
			},
			"properties" : {
				"Table_Row_ID" : 306
			}
		},
		{
			"type" : "Feature",
			"geometry" : {
				"type" : "Point",
				"coordinates" : [ 144.9905993475, -37.85994809 ]
			},
			"properties" : {
				"Table_Row_ID" : 307
			}
		},
		{
			"type" : "Feature",
			"geometry" : {
				"type" : "Point",
				"coordinates" : [ 144.9492021641, -37.8391998943 ]
			},
			"properties" : {
				"Table_Row_ID" : 308
			}
		},
		{
			"type" : "Feature",
			"geometry" : {
				"type" : "Point",
				"coordinates" : [ 144.9968101801, -37.8661197164 ]
			},
			"properties" : {
				"Table_Row_ID" : 309
			}
		},
		{
			"type" : "Feature",
			"geometry" : {
				"type" : "Point",
				"coordinates" : [ 144.9656185239, -37.8542717975 ]
			},
			"properties" : {
				"Table_Row_ID" : 310
			}
		},
		{
			"type" : "Feature",
			"geometry" : {
				"type" : "Point",
				"coordinates" : [ 144.9486790915, -37.8380374684 ]
			},
			"properties" : {
				"Table_Row_ID" : 311
			}
		},
		{
			"type" : "Feature",
			"geometry" : {
				"type" : "Point",
				"coordinates" : [ 144.943337589, -37.8350198481 ]
			},
			"properties" : {
				"Table_Row_ID" : 312
			}
		},
		{
			"type" : "Feature",
			"geometry" : {
				"type" : "Point",
				"coordinates" : [ 144.9634272098, -37.8375612065 ]
			},
			"properties" : {
				"Table_Row_ID" : 313
			}
		},
		{
			"type" : "Feature",
			"geometry" : {
				"type" : "Point",
				"coordinates" : [ 144.9905334158, -37.8669282183 ]
			},
			"properties" : {
				"Table_Row_ID" : 314
			}
		},
		{
			"type" : "Feature",
			"geometry" : {
				"type" : "Point",
				"coordinates" : [ 144.9609860458, -37.8514825682 ]
			},
			"properties" : {
				"Table_Row_ID" : 315
			}
		},
		{
			"type" : "Feature",
			"geometry" : {
				"type" : "Point",
				"coordinates" : [ 144.9494100898, -37.8387774351 ]
			},
			"properties" : {
				"Table_Row_ID" : 316
			}
		},
		{
			"type" : "Feature",
			"geometry" : {
				"type" : "Point",
				"coordinates" : [ 144.9494253881, -37.8443217018 ]
			},
			"properties" : {
				"Table_Row_ID" : 317
			}
		},
		{
			"type" : "Feature",
			"geometry" : {
				"type" : "Point",
				"coordinates" : [ 144.9427260993, -37.8323931205 ]
			},
			"properties" : {
				"Table_Row_ID" : 318
			}
		},
		{
			"type" : "Feature",
			"geometry" : {
				"type" : "Point",
				"coordinates" : [ 144.9892299218, -37.8612126068 ]
			},
			"properties" : {
				"Table_Row_ID" : 319
			}
		},
		{
			"type" : "Feature",
			"geometry" : {
				"type" : "Point",
				"coordinates" : [ 144.9434825085, -37.8443164841 ]
			},
			"properties" : {
				"Table_Row_ID" : 320
			}
		},
		{
			"type" : "Feature",
			"geometry" : {
				"type" : "Point",
				"coordinates" : [ 144.9515906712, -37.8415462034 ]
			},
			"properties" : {
				"Table_Row_ID" : 321
			}
		},
		{
			"type" : "Feature",
			"geometry" : {
				"type" : "Point",
				"coordinates" : [ 144.9409110624, -37.8334968841 ]
			},
			"properties" : {
				"Table_Row_ID" : 322
			}
		},
		{
			"type" : "Feature",
			"geometry" : {
				"type" : "Point",
				"coordinates" : [ 144.9486463489, -37.8435244317 ]
			},
			"properties" : {
				"Table_Row_ID" : 323
			}
		},
		{
			"type" : "Feature",
			"geometry" : {
				"type" : "Point",
				"coordinates" : [ 144.99703327, -37.8751195178 ]
			},
			"properties" : {
				"Table_Row_ID" : 324
			}
		},
		{
			"type" : "Feature",
			"geometry" : {
				"type" : "Point",
				"coordinates" : [ 144.9357582613, -37.8344548229 ]
			},
			"properties" : {
				"Table_Row_ID" : 325
			}
		},
		{
			"type" : "Feature",
			"geometry" : {
				"type" : "Point",
				"coordinates" : [ 144.9566671994, -37.8459267133 ]
			},
			"properties" : {
				"Table_Row_ID" : 326
			}
		},
		{
			"type" : "Feature",
			"geometry" : {
				"type" : "Point",
				"coordinates" : [ 144.9905385458, -37.8770589042 ]
			},
			"properties" : {
				"Table_Row_ID" : 327
			}
		},
		{
			"type" : "Feature",
			"geometry" : {
				"type" : "Point",
				"coordinates" : [ 144.9931873798, -37.8639001447 ]
			},
			"properties" : {
				"Table_Row_ID" : 328
			}
		},
		{
			"type" : "Feature",
			"geometry" : {
				"type" : "Point",
				"coordinates" : [ 144.9510523182, -37.8356202637 ]
			},
			"properties" : {
				"Table_Row_ID" : 329
			}
		},
		{
			"type" : "Feature",
			"geometry" : {
				"type" : "Point",
				"coordinates" : [ 144.9576965296, -37.8402104474 ]
			},
			"properties" : {
				"Table_Row_ID" : 330
			}
		},
		{
			"type" : "Feature",
			"geometry" : {
				"type" : "Point",
				"coordinates" : [ 144.9382304818, -37.8393587068 ]
			},
			"properties" : {
				"Table_Row_ID" : 331
			}
		},
		{
			"type" : "Feature",
			"geometry" : {
				"type" : "Point",
				"coordinates" : [ 144.9967537595, -37.8725661799 ]
			},
			"properties" : {
				"Table_Row_ID" : 332
			}
		},
		{
			"type" : "Feature",
			"geometry" : {
				"type" : "Point",
				"coordinates" : [ 144.9597548844, -37.8468335221 ]
			},
			"properties" : {
				"Table_Row_ID" : 333
			}
		},
		{
			"type" : "Feature",
			"geometry" : {
				"type" : "Point",
				"coordinates" : [ 144.9720210633, -37.8572812602 ]
			},
			"properties" : {
				"Table_Row_ID" : 334
			}
		},
		{
			"type" : "Feature",
			"geometry" : {
				"type" : "Point",
				"coordinates" : [ 144.9391514551, -37.8392022071 ]
			},
			"properties" : {
				"Table_Row_ID" : 335
			}
		},
		{
			"type" : "Feature",
			"geometry" : {
				"type" : "Point",
				"coordinates" : [ 144.9400709873, -37.8365266278 ]
			},
			"properties" : {
				"Table_Row_ID" : 336
			}
		},
		{
			"type" : "Feature",
			"geometry" : {
				"type" : "Point",
				"coordinates" : [ 144.9449217868, -37.8448466999 ]
			},
			"properties" : {
				"Table_Row_ID" : 337
			}
		},
		{
			"type" : "Feature",
			"geometry" : {
				"type" : "Point",
				"coordinates" : [ 144.9515304465, -37.8458090623 ]
			},
			"properties" : {
				"Table_Row_ID" : 338
			}
		},
		{
			"type" : "Feature",
			"geometry" : {
				"type" : "Point",
				"coordinates" : [ 144.9461559907, -37.8342616435 ]
			},
			"properties" : {
				"Table_Row_ID" : 339
			}
		},
		{
			"type" : "Feature",
			"geometry" : {
				"type" : "Point",
				"coordinates" : [ 144.9902253048, -37.8576788154 ]
			},
			"properties" : {
				"Table_Row_ID" : 340
			}
		},
		{
			"type" : "Feature",
			"geometry" : {
				"type" : "Point",
				"coordinates" : [ 144.9940956495, -37.8818486749 ]
			},
			"properties" : {
				"Table_Row_ID" : 341
			}
		},
		{
			"type" : "Feature",
			"geometry" : {
				"type" : "Point",
				"coordinates" : [ 144.9189614046, -37.8386203867 ]
			},
			"properties" : {
				"Table_Row_ID" : 342
			}
		},
		{
			"type" : "Feature",
			"geometry" : {
				"type" : "Point",
				"coordinates" : [ 144.9577135187, -37.8470066016 ]
			},
			"properties" : {
				"Table_Row_ID" : 343
			}
		},
		{
			"type" : "Feature",
			"geometry" : {
				"type" : "Point",
				"coordinates" : [ 144.9356092475, -37.8355109801 ]
			},
			"properties" : {
				"Table_Row_ID" : 344
			}
		},
		{
			"type" : "Feature",
			"geometry" : {
				"type" : "Point",
				"coordinates" : [ 145.0044335586, -37.8645167557 ]
			},
			"properties" : {
				"Table_Row_ID" : 345
			}
		},
		{
			"type" : "Feature",
			"geometry" : {
				"type" : "Point",
				"coordinates" : [ 144.9911894339, -37.8710048336 ]
			},
			"properties" : {
				"Table_Row_ID" : 346
			}
		},
		{
			"type" : "Feature",
			"geometry" : {
				"type" : "Point",
				"coordinates" : [ 144.9937297643, -37.8633920071 ]
			},
			"properties" : {
				"Table_Row_ID" : 347
			}
		},
		{
			"type" : "Feature",
			"geometry" : {
				"type" : "Point",
				"coordinates" : [ 144.949301927, -37.8389950586 ]
			},
			"properties" : {
				"Table_Row_ID" : 348
			}
		},
		{
			"type" : "Feature",
			"geometry" : {
				"type" : "Point",
				"coordinates" : [ 144.9789243537, -37.8794181885 ]
			},
			"properties" : {
				"Table_Row_ID" : 349
			}
		},
		{
			"type" : "Feature",
			"geometry" : {
				"type" : "Point",
				"coordinates" : [ 144.953354758, -37.8483418644 ]
			},
			"properties" : {
				"Table_Row_ID" : 350
			}
		},
		{
			"type" : "Feature",
			"geometry" : {
				"type" : "Point",
				"coordinates" : [ 144.9470057386, -37.8365273652 ]
			},
			"properties" : {
				"Table_Row_ID" : 351
			}
		},
		{
			"type" : "Feature",
			"geometry" : {
				"type" : "Point",
				"coordinates" : [ 144.9464210452, -37.8456430695 ]
			},
			"properties" : {
				"Table_Row_ID" : 352
			}
		},
		{
			"type" : "Feature",
			"geometry" : {
				"type" : "Point",
				"coordinates" : [ 144.9930802604, -37.8754696195 ]
			},
			"properties" : {
				"Table_Row_ID" : 353
			}
		},
		{
			"type" : "Feature",
			"geometry" : {
				"type" : "Point",
				"coordinates" : [ 144.949200456, -37.8405351336 ]
			},
			"properties" : {
				"Table_Row_ID" : 354
			}
		},
		{
			"type" : "Feature",
			"geometry" : {
				"type" : "Point",
				"coordinates" : [ 144.9534235458, -37.836976958 ]
			},
			"properties" : {
				"Table_Row_ID" : 355
			}
		},
		{
			"type" : "Feature",
			"geometry" : {
				"type" : "Point",
				"coordinates" : [ 144.9840520293, -37.8790549362 ]
			},
			"properties" : {
				"Table_Row_ID" : 356
			}
		},
		{
			"type" : "Feature",
			"geometry" : {
				"type" : "Point",
				"coordinates" : [ 144.9671106864, -37.85148252 ]
			},
			"properties" : {
				"Table_Row_ID" : 357
			}
		},
		{
			"type" : "Feature",
			"geometry" : {
				"type" : "Point",
				"coordinates" : [ 144.9487291178, -37.8397969293 ]
			},
			"properties" : {
				"Table_Row_ID" : 358
			}
		},
		{
			"type" : "Feature",
			"geometry" : {
				"type" : "Point",
				"coordinates" : [ 144.9555248241, -37.8485445514 ]
			},
			"properties" : {
				"Table_Row_ID" : 359
			}
		},
		{
			"type" : "Feature",
			"geometry" : {
				"type" : "Point",
				"coordinates" : [ 144.9649056302, -37.8542751346 ]
			},
			"properties" : {
				"Table_Row_ID" : 360
			}
		},
		{
			"type" : "Feature",
			"geometry" : {
				"type" : "Point",
				"coordinates" : [ 144.9908451154, -37.8767777048 ]
			},
			"properties" : {
				"Table_Row_ID" : 361
			}
		},
		{
			"type" : "Feature",
			"geometry" : {
				"type" : "Point",
				"coordinates" : [ 144.958725532, -37.8408646527 ]
			},
			"properties" : {
				"Table_Row_ID" : 362
			}
		},
		{
			"type" : "Feature",
			"geometry" : {
				"type" : "Point",
				"coordinates" : [ 144.9584578413, -37.8489004562 ]
			},
			"properties" : {
				"Table_Row_ID" : 363
			}
		},
		{
			"type" : "Feature",
			"geometry" : {
				"type" : "Point",
				"coordinates" : [ 144.960695083, -37.8368837788 ]
			},
			"properties" : {
				"Table_Row_ID" : 364
			}
		},
		{
			"type" : "Feature",
			"geometry" : {
				"type" : "Point",
				"coordinates" : [ 144.9297669225, -37.8378867094 ]
			},
			"properties" : {
				"Table_Row_ID" : 365
			}
		},
		{
			"type" : "Feature",
			"geometry" : {
				"type" : "Point",
				"coordinates" : [ 144.9609737762, -37.8468475746 ]
			},
			"properties" : {
				"Table_Row_ID" : 366
			}
		},
		{
			"type" : "Feature",
			"geometry" : {
				"type" : "Point",
				"coordinates" : [ 144.9402289591, -37.8327279807 ]
			},
			"properties" : {
				"Table_Row_ID" : 367
			}
		},
		{
			"type" : "Feature",
			"geometry" : {
				"type" : "Point",
				"coordinates" : [ 144.98918147, -37.8808826126 ]
			},
			"properties" : {
				"Table_Row_ID" : 368
			}
		},
		{
			"type" : "Feature",
			"geometry" : {
				"type" : "Point",
				"coordinates" : [ 144.9413243864, -37.8338718349 ]
			},
			"properties" : {
				"Table_Row_ID" : 369
			}
		},
		{
			"type" : "Feature",
			"geometry" : {
				"type" : "Point",
				"coordinates" : [ 144.9420262943, -37.8371216149 ]
			},
			"properties" : {
				"Table_Row_ID" : 370
			}
		},
		{
			"type" : "Feature",
			"geometry" : {
				"type" : "Point",
				"coordinates" : [ 144.9815784964, -37.8622407039 ]
			},
			"properties" : {
				"Table_Row_ID" : 371
			}
		},
		{
			"type" : "Feature",
			"geometry" : {
				"type" : "Point",
				"coordinates" : [ 144.9771834441, -37.8659425925 ]
			},
			"properties" : {
				"Table_Row_ID" : 372
			}
		},
		{
			"type" : "Feature",
			"geometry" : {
				"type" : "Point",
				"coordinates" : [ 144.9494057023, -37.8392842613 ]
			},
			"properties" : {
				"Table_Row_ID" : 373
			}
		},
		{
			"type" : "Feature",
			"geometry" : {
				"type" : "Point",
				"coordinates" : [ 144.9687883846, -37.8527902762 ]
			},
			"properties" : {
				"Table_Row_ID" : 374
			}
		},
		{
			"type" : "Feature",
			"geometry" : {
				"type" : "Point",
				"coordinates" : [ 144.9462945996, -37.8434637714 ]
			},
			"properties" : {
				"Table_Row_ID" : 375
			}
		},
		{
			"type" : "Feature",
			"geometry" : {
				"type" : "Point",
				"coordinates" : [ 144.9335720963, -37.8368415996 ]
			},
			"properties" : {
				"Table_Row_ID" : 376
			}
		},
		{
			"type" : "Feature",
			"geometry" : {
				"type" : "Point",
				"coordinates" : [ 144.9501859558, -37.8405384201 ]
			},
			"properties" : {
				"Table_Row_ID" : 377
			}
		},
		{
			"type" : "Feature",
			"geometry" : {
				"type" : "Point",
				"coordinates" : [ 144.9908126379, -37.8714171253 ]
			},
			"properties" : {
				"Table_Row_ID" : 378
			}
		},
		{
			"type" : "Feature",
			"geometry" : {
				"type" : "Point",
				"coordinates" : [ 144.9639545978, -37.8369676228 ]
			},
			"properties" : {
				"Table_Row_ID" : 379
			}
		},
		{
			"type" : "Feature",
			"geometry" : {
				"type" : "Point",
				"coordinates" : [ 144.9634000594, -37.8481724068 ]
			},
			"properties" : {
				"Table_Row_ID" : 380
			}
		},
		{
			"type" : "Feature",
			"geometry" : {
				"type" : "Point",
				"coordinates" : [ 144.9342599149, -37.8363303486 ]
			},
			"properties" : {
				"Table_Row_ID" : 381
			}
		},
		{
			"type" : "Feature",
			"geometry" : {
				"type" : "Point",
				"coordinates" : [ 144.9427812358, -37.8329828274 ]
			},
			"properties" : {
				"Table_Row_ID" : 382
			}
		},
		{
			"type" : "Feature",
			"geometry" : {
				"type" : "Point",
				"coordinates" : [ 144.9483732735, -37.845776954 ]
			},
			"properties" : {
				"Table_Row_ID" : 383
			}
		},
		{
			"type" : "Feature",
			"geometry" : {
				"type" : "Point",
				"coordinates" : [ 144.9516127643, -37.8462884626 ]
			},
			"properties" : {
				"Table_Row_ID" : 384
			}
		},
		{
			"type" : "Feature",
			"geometry" : {
				"type" : "Point",
				"coordinates" : [ 144.9832346309, -37.8796652026 ]
			},
			"properties" : {
				"Table_Row_ID" : 385
			}
		},
		{
			"type" : "Feature",
			"geometry" : {
				"type" : "Point",
				"coordinates" : [ 144.9783297544, -37.8770521321 ]
			},
			"properties" : {
				"Table_Row_ID" : 386
			}
		},
		{
			"type" : "Feature",
			"geometry" : {
				"type" : "Point",
				"coordinates" : [ 144.9585922639, -37.838977934 ]
			},
			"properties" : {
				"Table_Row_ID" : 387
			}
		},
		{
			"type" : "Feature",
			"geometry" : {
				"type" : "Point",
				"coordinates" : [ 144.9551675328, -37.8489572996 ]
			},
			"properties" : {
				"Table_Row_ID" : 388
			}
		},
		{
			"type" : "Feature",
			"geometry" : {
				"type" : "Point",
				"coordinates" : [ 144.9497346514, -37.8429831196 ]
			},
			"properties" : {
				"Table_Row_ID" : 389
			}
		},
		{
			"type" : "Feature",
			"geometry" : {
				"type" : "Point",
				"coordinates" : [ 144.9651229727, -37.8378732553 ]
			},
			"properties" : {
				"Table_Row_ID" : 390
			}
		},
		{
			"type" : "Feature",
			"geometry" : {
				"type" : "Point",
				"coordinates" : [ 144.9464952782, -37.8321511474 ]
			},
			"properties" : {
				"Table_Row_ID" : 391
			}
		},
		{
			"type" : "Feature",
			"geometry" : {
				"type" : "Point",
				"coordinates" : [ 144.9869439897, -37.8783066703 ]
			},
			"properties" : {
				"Table_Row_ID" : 392
			}
		},
		{
			"type" : "Feature",
			"geometry" : {
				"type" : "Point",
				"coordinates" : [ 144.9846400636, -37.8779704662 ]
			},
			"properties" : {
				"Table_Row_ID" : 393
			}
		},
		{
			"type" : "Feature",
			"geometry" : {
				"type" : "Point",
				"coordinates" : [ 144.9418564293, -37.8329278107 ]
			},
			"properties" : {
				"Table_Row_ID" : 394
			}
		},
		{
			"type" : "Feature",
			"geometry" : {
				"type" : "Point",
				"coordinates" : [ 144.9441905619, -37.8395224218 ]
			},
			"properties" : {
				"Table_Row_ID" : 395
			}
		},
		{
			"type" : "Feature",
			"geometry" : {
				"type" : "Point",
				"coordinates" : [ 144.9531638416, -37.8370524229 ]
			},
			"properties" : {
				"Table_Row_ID" : 396
			}
		},
		{
			"type" : "Feature",
			"geometry" : {
				"type" : "Point",
				"coordinates" : [ 144.9894591374, -37.8631277476 ]
			},
			"properties" : {
				"Table_Row_ID" : 397
			}
		},
		{
			"type" : "Feature",
			"geometry" : {
				"type" : "Point",
				"coordinates" : [ 144.9471436971, -37.8322511675 ]
			},
			"properties" : {
				"Table_Row_ID" : 398
			}
		},
		{
			"type" : "Feature",
			"geometry" : {
				"type" : "Point",
				"coordinates" : [ 144.9787510348, -37.8737573593 ]
			},
			"properties" : {
				"Table_Row_ID" : 399
			}
		},
		{
			"type" : "Feature",
			"geometry" : {
				"type" : "Point",
				"coordinates" : [ 144.9250022808, -37.8379356273 ]
			},
			"properties" : {
				"Table_Row_ID" : 400
			}
		},
		{
			"type" : "Feature",
			"geometry" : {
				"type" : "Point",
				"coordinates" : [ 144.9836914291, -37.8632715616 ]
			},
			"properties" : {
				"Table_Row_ID" : 401
			}
		},
		{
			"type" : "Feature",
			"geometry" : {
				"type" : "Point",
				"coordinates" : [ 144.9560198376, -37.8479344518 ]
			},
			"properties" : {
				"Table_Row_ID" : 402
			}
		}
	]
}